[{"OBJECT_NAME":"STARLINK-31696","OBJECT_ID":"2024-065Q","EPOCH":"2026-03-09T21:40:27.816672","MEAN_MOTION":15.30191505,"ECCENTRICITY":0.00011403,"INCLINATION":53.1601,"RA_OF_ASC_NODE":280.5719,"ARG_OF_PERICENTER":101.0378,"MEAN_ANOMALY":259.0751,"EPHEMERIS_TYPE":0,"CLASSIFICATION_TYPE":"U","NORAD_CAT_ID":59435,"ELEMENT_SET_NO":999,"REV_AT_EPOCH":10896,"BSTAR":3.151846e-6,"MEAN_MOTION_DOT":-2.66e-6,"MEAN_MOTION_DDOT":0},{"OBJECT_NAME":"ELECTRON KICK STAGE R\/B","OBJECT_ID":"2022-147B","EPOCH":"2026-03-09T22:28:20.187264","MEAN_MOTION":15.28920172,"ECCENTRICITY":0.00095089,"INCLINATION":97.642,"RA_OF_ASC_NODE":85.1135,"ARG_OF_PERICENTER":110.4683,"MEAN_ANOMALY":249.7578,"EPHEMERIS_TYPE":0,"CLASSIFICATION_TYPE":"U","NORAD_CAT_ID":54228,"ELEMENT_SET_NO":999,"REV_AT_EPOCH":18390,"BSTAR":0.00083201931,"MEAN_MOTION_DOT":0.00023374,"MEAN_MOTION_DDOT":0}]
